[{"OBJECT_NAME":"STARLINK-6229","OBJECT_ID":"2023-088AX","EPOCH":"2026-03-09T22:00:01.999584","MEAN_MOTION":15.08713209,"ECCENTRICITY":8.031e-5,"INCLINATION":43.0013,"RA_OF_ASC_NODE":92.8603,"ARG_OF_PERICENTER":300.4544,"MEAN_ANOMALY":222.1282,"EPHEMERIS_TYPE":0,"CLASSIFICATION_TYPE":"U","NORAD_CAT_ID":57093,"ELEMENT_SET_NO":999,"REV_AT_EPOCH":568,"BSTAR":0.0032165127,"MEAN_MOTION_DOT":0.00051479,"MEAN_MOTION_DDOT":0},{"OBJECT_NAME":"NOAA 17 DEB","OBJECT_ID":"2002-032BW","EPOCH":"2026-03-08T22:40:23.580768","MEAN_MOTION":15.05196658,"ECCENTRICITY":0.00149213,"INCLINATION":98.7181,"RA_OF_ASC_NODE":121.0481,"ARG_OF_PERICENTER":217.4424,"MEAN_ANOMALY":142.5761,"EPHEMERIS_TYPE":0,"CLASSIFICATION_TYPE":"U","NORAD_CAT_ID":48737,"ELEMENT_SET_NO":999,"REV_AT_EPOCH":26108,"BSTAR":0.0055556624,"MEAN_MOTION_DOT":0.00080221,"MEAN_MOTION_DDOT":0}]
